[{"OBJECT_NAME":"O3B FM20","OBJECT_ID":"2019-020A","EPOCH":"2026-03-06T06:26:23.797536","MEAN_MOTION":5.00115505,"ECCENTRICITY":0.00027999,"INCLINATION":0.0518,"RA_OF_ASC_NODE":359.6916,"ARG_OF_PERICENTER":333.6749,"MEAN_ANOMALY":26.6137,"EPHEMERIS_TYPE":0,"CLASSIFICATION_TYPE":"U","NORAD_CAT_ID":44112,"ELEMENT_SET_NO":999,"REV_AT_EPOCH":12642,"BSTAR":0,"MEAN_MOTION_DOT":-2.6e-7,"MEAN_MOTION_DDOT":0},{"OBJECT_NAME":"O3B FM19","OBJECT_ID":"2019-020B","EPOCH":"2026-02-27T21:34:30.034272","MEAN_MOTION":5.00116325,"ECCENTRICITY":0.0004795,"INCLINATION":0.0602,"RA_OF_ASC_NODE":347.5601,"ARG_OF_PERICENTER":353.9797,"MEAN_ANOMALY":18.4356,"EPHEMERIS_TYPE":0,"CLASSIFICATION_TYPE":"U","NORAD_CAT_ID":44113,"ELEMENT_SET_NO":999,"REV_AT_EPOCH":12597,"BSTAR":0,"MEAN_MOTION_DOT":-2.7e-7,"MEAN_MOTION_DDOT":0},{"OBJECT_NAME":"O3B FM17","OBJECT_ID":"2019-020C","EPOCH":"2026-03-06T13:48:34.424352","MEAN_MOTION":5.00115478,"ECCENTRICITY":0.00026826,"INCLINATION":0.0391,"RA_OF_ASC_NODE":340.3538,"ARG_OF_PERICENTER":0.1181,"MEAN_ANOMALY":19.5126,"EPHEMERIS_TYPE":0,"CLASSIFICATION_TYPE":"U","NORAD_CAT_ID":44114,"ELEMENT_SET_NO":999,"REV_AT_EPOCH":12638,"BSTAR":0,"MEAN_MOTION_DOT":-2.6e-7,"MEAN_MOTION_DDOT":0},{"OBJECT_NAME":"O3B FM18","OBJECT_ID":"2019-020D","EPOCH":"2026-03-03T12:33:35.684352","MEAN_MOTION":5.00115242,"ECCENTRICITY":0.0002751,"INCLINATION":0.0519,"RA_OF_ASC_NODE":0.0145,"ARG_OF_PERICENTER":341.722,"MEAN_ANOMALY":18.2467,"EPHEMERIS_TYPE":0,"CLASSIFICATION_TYPE":"U","NORAD_CAT_ID":44115,"ELEMENT_SET_NO":999,"REV_AT_EPOCH":12636,"BSTAR":0,"MEAN_MOTION_DOT":-2.8e-7,"MEAN_MOTION_DDOT":0},{"OBJECT_NAME":"SALSAT","OBJECT_ID":"2020-068K","EPOCH":"2026-03-06T09:34:37.173504","MEAN_MOTION":15.28102969,"ECCENTRICITY":0.00085035,"INCLINATION":97.8855,"RA_OF_ASC_NODE":62.338,"ARG_OF_PERICENTER":310.6744,"MEAN_ANOMALY":49.3754,"EPHEMERIS_TYPE":0,"CLASSIFICATION_TYPE":"U","NORAD_CAT_ID":46495,"ELEMENT_SET_NO":999,"REV_AT_EPOCH":29965,"BSTAR":0.00041380483,"MEAN_MOTION_DOT":0.00011274,"MEAN_MOTION_DDOT":0},{"OBJECT_NAME":"O3B MPOWER F1","OBJECT_ID":"2022-174A","EPOCH":"2026-03-06T11:22:42.497472","MEAN_MOTION":5.00103106,"ECCENTRICITY":0.00051959,"INCLINATION":0.0639,"RA_OF_ASC_NODE":350.8324,"ARG_OF_PERICENTER":11.1049,"MEAN_ANOMALY":132.3969,"EPHEMERIS_TYPE":0,"CLASSIFICATION_TYPE":"U","NORAD_CAT_ID":54755,"ELEMENT_SET_NO":999,"REV_AT_EPOCH":6022,"BSTAR":0,"MEAN_MOTION_DOT":-2.6e-7,"MEAN_MOTION_DDOT":0},{"OBJECT_NAME":"O3B MPOWER F2","OBJECT_ID":"2022-174B","EPOCH":"2026-03-03T12:48:44.541504","MEAN_MOTION":5.00690325,"ECCENTRICITY":0.00461256,"INCLINATION":0.1272,"RA_OF_ASC_NODE":326.2177,"ARG_OF_PERICENTER":76.0907,"MEAN_ANOMALY":318.0389,"EPHEMERIS_TYPE":0,"CLASSIFICATION_TYPE":"U","NORAD_CAT_ID":54756,"ELEMENT_SET_NO":999,"REV_AT_EPOCH":6015,"BSTAR":0,"MEAN_MOTION_DOT":-2.8e-7,"MEAN_MOTION_DDOT":0},{"OBJECT_NAME":"O3B MPOWER F4","OBJECT_ID":"2023-059A","EPOCH":"2026-02-17T05:46:40.580544","MEAN_MOTION":5.00119607,"ECCENTRICITY":0.00064606,"INCLINATION":0.0593,"RA_OF_ASC_NODE":7.9241,"ARG_OF_PERICENTER":334.3658,"MEAN_ANOMALY":17.6828,"EPHEMERIS_TYPE":0,"CLASSIFICATION_TYPE":"U","NORAD_CAT_ID":56367,"ELEMENT_SET_NO":999,"REV_AT_EPOCH":5260,"BSTAR":0,"MEAN_MOTION_DOT":-1.5e-7,"MEAN_MOTION_DDOT":0}]
